{
    "element_count": 14,
    "links": {
        "next": "http://www.neowsapp.com/rest/v1/feed?start_date=2019-10-29&end_date=2019-10-29&detailed=true&api_key=13L6o25sYaUm7Ac1Op2e09FrWudmH6N0rRhVBoCx",
        "prev": "http://www.neowsapp.com/rest/v1/feed?start_date=2019-10-27&end_date=2019-10-27&detailed=true&api_key=13L6o25sYaUm7Ac1Op2e09FrWudmH6N0rRhVBoCx",
        "self": "http://www.neowsapp.com/rest/v1/feed?start_date=2019-10-28&end_date=2019-10-28&detailed=true&api_key=13L6o25sYaUm7Ac1Op2e09FrWudmH6N0rRhVBoCx"
    },
    "near_earth_objects": {
        "2019-10-28": [
            {
                "absolute_magnitude_h": 27.617,
                "close_approach_data": [
                    {
                        "close_approach_date": "2019-10-28",
                        "close_approach_date_full": "2019-Oct-28 15:02",
                        "epoch_date_close_approach": 1572274920000,
                        "miss_distance": {
                            "astronomical": "0.0121477043",
                            "kilometers": "1817270.688669841",
                            "lunar": "4.7254569727",
                            "miles": "1129199.6442561658"
                        },
                        "orbiting_body": "Earth",
                        "relative_velocity": {
                            "kilometers_per_hour": "31629.2016417046",
                            "kilometers_per_second": "8.7858893449",
                            "miles_per_hour": "19653.1558756469"
                        }
                    }
                ],
                "estimated_diameter": {
                    "feet": {
                        "estimated_diameter_max": 58.4285394104,
                        "estimated_diameter_min": 26.1300371895
                    },
                    "kilometers": {
                        "estimated_diameter_max": 0.0178090182,
                        "estimated_diameter_min": 0.0079644351
                    },
                    "meters": {
                        "estimated_diameter_max": 17.8090182424,
                        "estimated_diameter_min": 7.9644350805
                    },
                    "miles": {
                        "estimated_diameter_max": 0.0110660075,
                        "estimated_diameter_min": 0.004948869
                    }
                },
                "id": "3879269",
                "is_potentially_hazardous_asteroid": false,
                "is_sentry_object": false,
                "links": {
                    "self": "http://www.neowsapp.com/rest/v1/neo/3879269?api_key=13L6o25sYaUm7Ac1Op2e09FrWudmH6N0rRhVBoCx"
                },
                "name": "(2019 UT1)",
                "nasa_jpl_url": "http://ssd.jpl.nasa.gov/sbdb.cgi?sstr=3879269",
                "neo_reference_id": "3879269",
                "orbital_data": {
                    "aphelion_distance": "1.504507964728211",
                    "ascending_node_longitude": "207.8128282186151",
                    "data_arc_in_days": 2,
                    "eccentricity": ".3083043762570485",
                    "epoch_osculation": "2458776.5",
                    "equinox": "J2000",
                    "first_observation_date": "2019-10-19",
                    "inclination": "5.359767316241478",
                    "jupiter_tisserand_invariant": "5.415",
                    "last_observation_date": "2019-10-21",
                    "mean_anomaly": "304.6112744038656",
                    "mean_motion": ".799236902974631",
                    "minimum_orbit_intersection": ".0110461",
                    "observations_used": 16,
                    "orbit_class": {
                        "orbit_class_description": "Near-Earth asteroid orbits which cross the Earth\u2019s orbit similar to that of 1862 Apollo",
                        "orbit_class_range": "a (semi-major axis) > 1.0 AU; q (perihelion) < 1.017 AU",
                        "orbit_class_type": "APO"
                    },
                    "orbit_determination_date": "2019-10-21 07:12:13",
                    "orbit_id": "1",
                    "orbit_uncertainty": "8",
                    "orbital_period": "450.4296519093875",
                    "perihelion_argument": "268.369798911859",
                    "perihelion_distance": ".7954277261275893",
                    "perihelion_time": "2458845.802012194365",
                    "semi_major_axis": "1.1499678454279"
                }
            },
            {
                "absolute_magnitude_h": 27.338,
                "close_approach_data": [
                    {
                        "close_approach_date": "2019-10-28",
                        "close_approach_date_full": "2019-Oct-28 06:15",
                        "epoch_date_close_approach": 1572243300000,
                        "miss_distance": {
                            "astronomical": "0.0081908879",
                            "kilometers": "1225339.383248773",
                            "lunar": "3.1862553931",
                            "miles": "761390.5866001474"
                        },
                        "orbiting_body": "Earth",
                        "relative_velocity": {
                            "kilometers_per_hour": "27311.2566965144",
                            "kilometers_per_second": "7.5864601935",
                            "miles_per_hour": "16970.1528067869"
                        }
                    }
                ],
                "estimated_diameter": {
                    "feet": {
                        "estimated_diameter_max": 66.4392972308,
                        "estimated_diameter_min": 29.7125569971
                    },
                    "kilometers": {
                        "estimated_diameter_max": 0.0202506971,
                        "estimated_diameter_min": 0.0090563871
                    },
                    "meters": {
                        "estimated_diameter_max": 20.2506971479,
                        "estimated_diameter_min": 9.0563870829
                    },
                    "miles": {
                        "estimated_diameter_max": 0.0125831959,
                        "estimated_diameter_min": 0.0056273763
                    }
                },
                "id": "3884023",
                "is_potentially_hazardous_asteroid": false,
                "is_sentry_object": false,
                "links": {
                    "self": "http://www.neowsapp.com/rest/v1/neo/3884023?api_key=13L6o25sYaUm7Ac1Op2e09FrWudmH6N0rRhVBoCx"
                },
                "name": "(2019 UM9)",
                "nasa_jpl_url": "http://ssd.jpl.nasa.gov/sbdb.cgi?sstr=3884023",
                "neo_reference_id": "3884023",
                "orbital_data": {
                    "aphelion_distance": "1.13494448385236",
                    "ascending_node_longitude": "33.2824912620156",
                    "data_arc_in_days": 1,
                    "eccentricity": ".1533147606954562",
                    "epoch_osculation": "2458600.5",
                    "equinox": "J2000",
                    "first_observation_date": "2019-10-27",
                    "inclination": "12.43239422937401",
                    "jupiter_tisserand_invariant": "6.127",
                    "last_observation_date": "2019-10-28",
                    "mean_anomaly": "86.54531028439594",
                    "mean_motion": "1.009633894456422",
                    "minimum_orbit_intersection": ".00694134",
                    "observations_used": 69,
                    "orbit_class": {
                        "orbit_class_description": "Near-Earth asteroid orbits similar to that of 2062 Aten",
                        "orbit_class_range": "a (semi-major axis) < 1.0 AU; q (perihelion) > 0.983 AU",
                        "orbit_class_type": "ATE"
                    },
                    "orbit_determination_date": "2019-10-27 19:42:11",
                    "orbit_id": "1",
                    "orbit_uncertainty": "6",
                    "orbital_period": "356.5648914687249",
                    "perihelion_argument": "105.5849532675583",
                    "perihelion_distance": ".8331990317443385",
                    "perihelion_time": "2458514.780502309215",
                    "semi_major_axis": ".9840717577983493"
                }
            }
        ]
    }
}
